IRIDIUM 33 DEB          
1 46983U 97051ACR 21274.79701090  .00005962  00000-0  98449-3 0  9990
2 46983  86.3678 284.7353 0004711  34.5777 140.2057 14.70271808485428